KUIPER-00035            
1 63748U 25088AA  25338.28755718  .00005861  00000+0  79619-3 0  9999
2 63748  51.8992 175.9794 0007390 110.9668 249.2086 14.79980516 33384
KUIPER-00037            
1 63749U 25088AB  25337.81228960  .00002822  00000+0  39625-3 0  9999
2 63749  51.8975 176.9854 0008900  65.8910 294.2982 14.80234359 34116
KUIPER-00038            
1 63750U 25088AC  25338.23799949  .00003589  00000+0  49942-3 0  9992
2 63750  51.8998 160.1645 0008118 114.1100 246.0712 14.79943935 33385
KUIPER-00039            
1 64500U 25134A   25338.27479562  .00010511  00000+0  13943-2 0  9992
2 64500  51.9014 294.9691 0011631 339.4229  20.6264 14.80239913 25941
KUIPER-00040            
1 64501U 25134B   25338.60318318  .00006453  00000+0  87209-3 0  9998
2 64501  51.8982 304.7049 0017558 314.6201  45.3329 14.79977873 25837
KUIPER-00041            
1 64502U 25134C   25338.33206662  .00014112  00000+0  18727-2 0  9996
2 64502  51.8997 307.2623 0013656 312.2819  47.6985 14.79957001 25771
KUIPER-00042            
1 64503U 25134D   25338.60595292  .00013826  00000+0  18350-2 0  9990
2 64503  51.9006 302.0555 0011910 321.6044  38.4069 14.79981065 25875
KUIPER-00043            
1 64504U 25134E   25338.14131469  .00012358  00000+0  16454-2 0  9994
2 64504  51.9018 296.5541 0003515 334.6876  25.3914 14.79975259 25917
